STARLINK-31906          
1 59842U 24097H   24154.58334491 -.00849015  00000+0 -49161-2 0  9994
2 59842  43.0043 352.4729 0001419 274.9610  82.5721 15.79841868  2879
STARLINK-31857          
1 59843U 24097J   24154.58334491 -.00854627  00000+0 -49559-2 0  9991
2 59843  43.0043 352.4675 0001710 270.1633  89.4794 15.79821651  2871
STARLINK-31851          
1 59844U 24097K   24154.58334491 -.00862094  00000+0 -50045-2 0  9991
2 59844  43.0043 352.4629 0001441 276.8339  84.5814 15.79820533  2875
STARLINK-31903          
1 59845U 24097L   24154.58334491 -.00869715  00000+0 -50584-2 0  9997
2 59845  43.0042 352.4574 0001620 269.4136  94.1670 15.79797108  2874
STARLINK-31922          
1 59846U 24097M   24154.58334491 -.00876548  00000+0 -51045-2 0  9993
2 59846  43.0042 352.4526 0001597 270.4750  94.9962 15.79788013  2821
STARLINK-31889          
1 59847U 24097N   24154.83334491 -.00897751  00000+0 -53631-2 0  9994
2 59847  43.0040 350.9235 0001493 283.8896  66.9496 15.79290102  2866
STARLINK-31859          
1 59848U 24097P   24154.58334491 -.00891339  00000+0 -52062-2 0  9990
2 59848  43.0040 352.4426 0001893 267.4082 102.0227 15.79758526  2824
STARLINK-31895          
1 59849U 24097Q   24154.58334491 -.00904643  00000+0 -52974-2 0  9996
2 59849  43.0040 352.4371 0001378 273.1632  98.3013 15.79742962  2824
STARLINK-31899          
1 59850U 24097R   24154.83334491 -.00922084  00000+0 -55400-2 0  9992
2 59850  43.0037 350.9083 0001481 284.9252  71.8106 15.79229808  2860
STARLINK-31896          
1 59851U 24097S   24154.83334491 -.00932456  00000+0 -56164-2 0  9995
2 59851  43.0037 350.9031 0001442 283.9245  74.8678 15.79202873  2918
STARLINK-31897          
1 59852U 24097T   24154.83334491 -.00939919  00000+0 -56713-2 0  9997
2 59852  43.0035 350.8981 0001433 277.2298  83.4642 15.79184426  2868
STARLINK-31892          
1 59853U 24097U   24154.83334491 -.00948101  00000+0 -57344-2 0  9992
2 59853  43.0036 350.8931 0001459 283.8905  78.8679 15.79153631  2863
STARLINK-31891          
1 59854U 24097V   24154.83334491 -.00953093  00000+0 -57722-2 0  9999
2 59854  43.0037 350.8883 0001563 286.0755  78.5242 15.79137060  2912
STARLINK-31882          
1 59855U 24097W   24154.83334491 -.00963079  00000+0 -58473-2 0  9999
2 59855  43.0037 350.8834 0001491 284.5031  82.1061 15.79109778  2914
STARLINK-31691          
1 59856U 24097X   24154.83334491 -.00974847  00000+0 -59329-2 0  9996
2 59856  43.0037 350.8783 0001586 270.1920  98.3567 15.79088092  2860
STARLINK-31569          
1 59857U 24097Y   24154.83334491 -.00979522  00000+0 -59726-2 0  9993
2 59857  43.0039 350.8736 0001477 284.3631  86.1361 15.79060652  2911
STARLINK-31654          
1 59858U 24098A   24154.58334491 -.00761328  00000+0 -38451-2 0  9992
2 59858  43.0068   2.0588 0001932 265.9926 120.2144 15.82538852  2727
STARLINK-31442          
1 59859U 24098B   24154.83334491  .00201511  00000+0  82815-3 0  9996
2 59859  43.0065   0.5111 0002349 281.4004  97.5760 15.84635393  2105
STARLINK-31651          
1 59860U 24098C   24154.58334491 -.00772056  00000+0 -38985-2 0  9997
2 59860  43.0070   2.0493 0001605 273.2143 116.6650 15.82572368  2022
STARLINK-31703          
1 59861U 24098D   24154.83334491 -.00805481  00000+0 -41621-2 0  9996
2 59861  43.0066   0.5128 0001859 284.5179  93.6971 15.82165630  2100
STARLINK-31584          
1 59862U 24098E   24154.83334491 -.00816222  00000+0 -42194-2 0  9998
2 59862  43.0065   0.5086 0001463 277.5104 102.2877 15.82186873  1949
STARLINK-31950          
1 59863U 24098F   24154.83334491 -.00822970  00000+0 -42564-2 0  9997
2 59863  43.0065   0.5030 0001641 276.3143 105.7578 15.82191461  2101
STARLINK-31931          
1 59864U 24098G   24154.83334491 -.00828249  00000+0 -42848-2 0  9998
2 59864  43.0065   0.4975 0001598 283.4517 100.6598 15.82199563  2101
STARLINK-31938          
1 59865U 24098H   24154.83334491 -.00839604  00000+0 -43480-2 0  9999
2 59865  43.0064   0.4922 0001492 280.4335 105.9035 15.82207082  2752
STARLINK-31941          
1 59866U 24098J   24154.83334491 -.00843771  00000+0 -43685-2 0  9997
2 59866  43.0065   0.4880 0001492 280.9641 107.0068 15.82222660  2109
STARLINK-31952          
1 59867U 24098K   24154.83334491 -.00851707  00000+0 -44128-2 0  9999
2 59867  43.0065   0.4822 0001532 281.3863 108.8395 15.82226654  2101
STARLINK-31921          
1 59868U 24098L   24154.83334491  .00517831  11856-3  11774-2 0  9991
2 59868  43.0050   0.1370 0004688 271.2592 255.9865 15.96651815  2105
STARLINK-31760          
1 59869U 24098M   24154.83334491 -.00868093  00000+0 -45041-2 0  9992
2 59869  43.0065   0.4713 0001522 282.0399 112.5021 15.82237544  2101
STARLINK-31945          
1 59870U 24098N   24154.83334491 -.00877282  00000+0 -45553-2 0  9992
2 59870  43.0063   0.4659 0001598 279.0662 117.6081 15.82243397  2118
STARLINK-31937          
1 59871U 24098P   24154.83334491 -.00882934  00000+0 -45869-2 0  9993
2 59871  43.0063   0.4604 0001623 284.0039 114.7861 15.82246897  2103
STARLINK-31944          
1 59872U 24098Q   24154.83334491 -.00891844  00000+0 -46374-2 0  9996
2 59872  43.0062   0.4550 0001530 283.9229 117.0306 15.82250895  2056
STARLINK-31940          
1 59873U 24098R   24154.83334491 -.00899482  00000+0 -46783-2 0  9997
2 59873  43.0060   0.4504 0001756 275.4609 127.3140 15.82262432  1949
STARLINK-31933          
1 59874U 24098S   24154.83334491 -.00906706  00000+0 -47204-2 0  9995
2 59874  43.0061   0.4445 0001525 283.9209 121.0830 15.82262619  2102
STARLINK-31936          
1 59875U 24098T   24154.58334491 -.00886889  00000+0 -45001-2 0  9990
2 59875  43.0063   1.9714 0001628 265.7457 154.8471 15.82753498  2078
STARLINK-31935          
1 59876U 24098U   24154.58334491 -.00896904  00000+0 -45555-2 0  9994
2 59876  43.0063   1.9655 0001520 266.9433 155.9498 15.82758294  2071
STARLINK-31934          
1 59877U 24098V   24154.58334491 -.00903062  00000+0 -45871-2 0  9990
2 59877  43.0063   1.9609 0001752 271.0907 153.6643 15.82769804  2077
STARLINK-31943          
1 59878U 24098W   24154.58334491 -.00913155  00000+0 -46437-2 0  9994
2 59878  43.0064   1.9551 0001521 270.9188 156.1609 15.82773156  2073
STARLINK-31926          
1 59879U 24098X   24154.83334491 -.00947193  00000+0 -49510-2 0  9997
2 59879  43.0060   0.4187 0001520 282.9627 132.4043 15.82279986  2755
STARLINK-31919          
1 59880U 24098Y   24154.83334491 -.00953958  00000+0 -49861-2 0  9994
2 59880  43.0058   0.4147 0002013 275.1767 141.8846 15.82292923  2758
PREFIRE-1               
1 59881U 24099A   24154.48992719  .00004552  00000+0  26931-3 0  9999
2 59881  97.4985  12.1980 0012871 275.4383  84.5379 15.11874688  1238
ELECTRON R/B            
1 59882U 24099B   24154.16251020  .01362530  22325-5  13751-2 0  9997
2 59882  97.4850  12.5956 0188100 195.3720 164.1790 15.84429526  1230
ELECTRON KICK STAGE R/B 
1 59883U 24099C   24154.48895265  .00017544  00000+0  68985-3 0  9999
2 59883  97.5050  12.3505 0050253 352.8713   7.1804 15.24534533  1232
EARTHCARE               
1 59908U 24101A   24150.12397311 -.00000091  00000+0  00000+0 0  9997
2 59908  96.9785 278.3904 0004183 133.0935 349.8946 15.55298826    26
TIANQI 25               
1 59909U 24102A   24154.84108080  .00000523  00000+0  34095-3 0  9999
2 59909  44.9784 335.5180 0011862 325.3531  34.6534 14.14308110   643
TIANQI 26               
1 59910U 24102B   24154.62871340  .00000529  00000+0  34317-3 0  9996
2 59910  44.9747 336.4817 0012372 326.9157  33.0906 14.14456541   614
TIANQI 27               
1 59911U 24102C   24154.62841757  .00000555  00000+0  35562-3 0  9998
2 59911  44.9793 336.4805 0012279 330.4261  29.5882 14.14555730   607
TIANQI 28               
1 59912U 24102D   24154.23791126  .00000986  00000+0  57822-3 0  9991
2 59912  44.9796 338.2582 0013295 325.5909 204.0871 14.14567625   543
PROGRESS-MS 27          
1 59913U 24103A   24154.51567801  .00020422  00000+0  35473-3 0  9990
2 59913  51.6394  28.0122 0005759 266.9814 160.5876 15.50788756456273
PAKSAT-MM1              
1 59915U 24104A   24151.80722123 -.00000248  00000+0  00000+0 0  9991
2 59915  26.7202  68.7443 7296653 179.4408 232.4718  2.28298286    18
CZ-3B R/B               
1 59916U 24104B   24152.99124350  .00162724  32621-6  53053-2 0  9998
2 59916  26.7431  68.3645 7224828 179.3026 183.0481  2.39384310    40
2024-105A               
1 59917U 24105A   24154.87989549  .00003331  00000+0  21336-3 0  9995
2 59917  97.6028 161.3164 0013395 273.6416  86.3281 15.09174113   434
2024-105B               
1 59918U 24105B   24154.87922547  .00004020  00000+0  25418-3 0  9992
2 59918  97.6030 161.3174 0013170 280.9975  78.9773 15.09528998   449
2024-105C               
1 59919U 24105C   24154.87935037  .00004903  00000+0  30963-3 0  9992
2 59919  97.5992 161.3156 0013474 279.0792  80.8912 15.09464772   445
2024-105D               
1 59920U 24105D   24154.81321358  .00005276  00000+0  33360-3 0  9991
2 59920  97.6059 161.2521 0013343 277.8340  82.1374 15.09382420   432
2024-105E               
1 59921U 24105E   24154.87950724  .00004691  00000+0  29710-3 0  9997
2 59921  97.5995 161.3155 0013312 277.6481  82.3236 15.09382133   446
NOAA 1                  
1 04793U 70106A   24154.09230392 -.00000036  00000+0  47515-4 0  9996
2 04793 101.4462 206.7568 0031480   7.4977  47.1462 12.54028185447293
NOAA 2 (ITOS-D)         
1 06235U 72082A   24154.48791212 -.00000013  00000+0  20851-3 0  9998
2 06235 102.0145 153.2913 0004277 143.7369 340.6696 12.53180442361664
NOAA 3                  
1 06920U 73086A   24154.53475051 -.00000022  00000+0  18134-3 0  9991
2 06920 102.2751 150.3983 0006920  54.5592  57.4932 12.40367892289576
